id,name,description,latitude,longitude,category,address,image_url,created_at,updated_at
02dcaa3d-42de-402c-ba22-d903117ede7a,Palmares Skate Park,"Espaço vibrante e comunitário integrado à Praça Palmares, com pista de skate, iluminação, bancos e canteiros. Ideal para treinos técnicos, recreação e eventos culturais ao ar livre. O busto de Zumbi dos Palmares reforça o vínculo histórico e cultural.",-23.96154455,-46.31650736,esporte,"Praça Zumbi dos Palmares, Macuco, Santos - SP",https://qbdofilxcfnxhaimuilu.supabase.co/storage/v1/object/public/famous-places-images/1753197223225-hrdkba.webp,2025-07-22 15:12:20.284+00,2025-07-22 15:12:20.284+00
07829aac-bca7-46df-8ed7-757c6594d88a,Ponte Pênsil de São Vicente,"Inaugurada em 21 de maio de 1914 como a primeira ponte suspensa do Brasil, com 180 m de extensão e torres de cerca de 23 m. Projetada por Saturnino de Brito para o transporte de tubulações sanitárias, tornou-se cartão‑postal e marco da engenharia local. Preserva elementos originais e é tombada como patrimônio histórico municipal.‎",-23.97701978,-46.38835430,Engenharia,"Avenida Capitão Mor Aguiar, São Vicente - SP",https://qbdofilxcfnxhaimuilu.supabase.co/storage/v1/object/public/famous-places-images/1753797922687-uyuwl2.jpg,2025-07-29 13:58:49.865407+00,2025-07-29 13:58:49.865407+00
082366c6-43e0-40c0-95d7-e9e2ee513a3c,Casa Martim Afonso,"Símbolo da fundação da primeira vila do Brasil em 22 de janeiro de 1532 por Martim Afonso de Sousa. A edificação atual foi construída em 1895 pelo Barão de Piracicaba e inaugurada em 2000 como espaço cultural. Inclui a “Casa de Madeira” que abriga o Sítio Arqueológico Bacharel: vestígio de parede em taipa datada de 1510–1520, considerada a construção mais antiga do país. O local abriga o Centro de Documentação e Memória de São Vicente (CEDOM), exposições permanentes, acervo arqueológico e programação cultural anual com encenações, oficinas e eventos.‎",-23.96891210,-46.38690600,Patrimônio Histórico,"Praça 22 de Janeiro, nº 469, Centro, São Vicente - SP",https://qbdofilxcfnxhaimuilu.supabase.co/storage/v1/object/public/famous-places-images/1753798390980-g8hvhn.jpg,2025-07-29 13:58:49.865407+00,2025-07-29 13:58:49.865407+00
08317414-16e1-4a87-87e2-cf3d4dc6d555,Outeiro de Santa Catarina,"Marcos iniciais da vila de Santos no século XVI: Luís de Góes e Catarina de Aguillar ergueram ali a capela de Santa Catarina de Alexandria, junto com a primeira Santa Casa em 1543. O outeiro serviu como fonte de pedras para o calçamento e expansão do porto até o século XIX. Em torno de 1880–84, o médico italiano João Éboli ergueu uma casa acastelada sobre a rocha remanescente, com estilo que remete a um pequeno castelo. Tombado na década de 1980 como patrimônio histórico, cultural, artístico e arqueológico, pertence hoje à Fundação Arquivo e Memória de Santos, com museu e intervenções visuais, incluindo painel de azulejos instalado em 1996. Reconhecido como marco inicial pelo município em 22 de outubro de 1922.‎",-23.93342830,-46.32249980,Marco Histórico,"Rua Visconde do Rio Branco, Centro Histórico, Santos - SP",https://qbdofilxcfnxhaimuilu.supabase.co/storage/v1/object/public/famous-places-images/1753797782587-7yqeny.jpg,2025-07-29 13:58:49.865407+00,2025-07-29 13:58:49.865407+00
0a798be9-32c8-4531-b3a2-46d1fa3d3a54,Quilombo do Pai Felipe,"Formado no final do século XIX por Pai Felipe — “Rei Batuqueiro” de origem africana. Instalou-se na Vila Mathias após fuga de Santos e liderou um quilombo marcado por resistência cultural, batucadas e ocupação indígena e africana.",-23.94251631,-46.32983118,histórico,"Vila Mathias, Santos - SP",https://qbdofilxcfnxhaimuilu.supabase.co/storage/v1/object/public/famous-places-images/1753197338632-s9y55e.webp,2025-07-22 15:12:20.284+00,2025-07-22 15:12:20.284+00
0b62b6ed-a2eb-46ea-a5c0-a2de9d7e67fe,Complexo esportivo e recreativo Rebouças,"O Rebouças oferece atividades esportivas e recreativas para varias as idades. Tem três quadras cobertas, três piscinas (recreativa, biribol e olímpica), academia, pista de cooper, ginásio com arquibancada e salas especializadas para esportes e artes marciais. As modalidades oferecidas incluem musculação, natação, hidroginástica, futsal, voleibol, basquete, dança, pilates, artes marciais, entre outras. No local também funciona a Secretaria Municipal de Esportes.",-23.98105890,-46.30030710,lazer,,https://hericmr.github.io//cartografiasocial/fotos/rebouças.jpg,2025-08-01 12:45:20.657689+00,2025-08-01 12:45:20.657689+00
105451c0-bb8a-4340-a0db-8999520c0aa3,"Biblioteca Municipal ""Mário Faria""","<p>A Biblioteca Municipal Mário Faria em Santos foi inaugurada em 31 de janeiro de 1993. Atualmente, seu atendimento é totalmente informatizado, possuindo um acervo de aproximadamente 6.000 livros, entre literatura de diversos autores e livros de pesquisa em todas as áreas, sendo boa parte circulante. A biblioteca promove mensalmente o projeto “Autor e sua Obra”, onde autores falam de seus livros, visando incentivar e divulgar os escritores e a produção literária da região. A Biblioteca Municipal Mário Faria funciona todos os dias das 09h às 19h, com entrada gratuita, se localiza na calçada. telefone (13) 3226-8000.</p>",-23.97947620,-46.31431020,lazer,,https://kbekziboncpvjqffmhlx.supabase.co/storage/v1/object/public/media/locations/46viv6eymix.png,2025-08-01 12:45:20.959234+00,2025-08-01 12:45:20.959234+00
1703548c-dd21-43ea-9fb1-eb6f823c700a,Lagoa da Saudade,"Localizada no Morro da Nova Cintra, a Lagoa da Saudade é um recanto natural cercado por vegetação e lendas locais. Um dos pontos mais tranquilos e simbólicos de Santos, onde há também uma estátua em homenagem a Mãe d'Água. O local é muito visitado por moradores e turistas em busca de sossego e contemplação.",-23.94817887,-46.35479245,turismo,"Morro da Nova Cintra, Santos - SP",https://qbdofilxcfnxhaimuilu.supabase.co/storage/v1/object/public/famous-places-images/1753190349035-1m1p03.jpg,2025-07-22 13:18:33.848569+00,2025-07-22 13:18:33.848569+00
1b5434e3-b9f3-49ea-82c3-b1f0bfc3744e,Chorinho no Aquário,"O ""Chorinho no Aquário"" é uma atividade musical que ocorre todos os sábados, a partir das 18h, na Praça Vereador Luiz La Scala, localizada na Ponta da Praia. As apresentações são gratuitas e destacam o melhor do choro, samba, MPB e bossa nova, com repertórios que incluem clássicos de ícones como Dona Ivone Lara, Cartola, Noel Rosa e Pixinguinha.",-23.98746300,-46.30805300,lazer,,https://hericmr.github.io//cartografiasocial/fotos/chorinho.jpg,2025-08-01 12:45:20.813566+00,2025-08-01 12:45:20.813566+00
216374ba-7ac9-4429-99e6-cf477da26a89,Vila Sapo,"A **Vila Sapo** é uma comunidade localizada na Ponta da Praia, em Santos, formada na década de 1960. Desde sua formação, os moradores da Vila Sapo enfrentam desafios relacionados à moradia adequada e à regularização fundiária. A história da Vila Sapo reflete a dinâmica da segregação socioespacial e da resistência comunitária, questões centrais da urbanização na cidade de Santos. Apesar das adversidades, a comunidade demonstra resistência e organização na busca por justiça e direito à cidade. Em 2011 foi fundada a Associação Habitacional Vila Sapo, que tem sido fundamental na defesa dos direitos dos moradores.",-23.98256960,-46.29481650,comunidades,,https://qbdofilxcfnxhaimuilu.supabase.co/storage/v1/object/public/famous-places-images/1754068996328-mzaxkf.jpg,2025-08-01 12:45:20.06089+00,2025-08-01 12:45:20.06089+00
240f8f1e-1d6f-4852-87dc-e0cb3b6eba66,Santa Casa da Misericórdia de Santos,A Santa Casa de Santos foi o primeiro hospital do Brasil e é uma instituição filantrópica fundamental no cenário de assistência à saúde. Atualmente segue sendo referência na cidade atendendo serviços privados e alguns setores públicos da saúde.,-23.94451750,-46.33663130,assistencia,,https://qbdofilxcfnxhaimuilu.supabase.co/storage/v1/object/public/famous-places-images/1754068963419-mdl3ur.jpeg,2025-08-01 12:45:15.744349+00,2025-08-01 12:45:15.744349+00
245f6539-fd2f-4e78-b752-3eb2a146e2b0,Cadeia Velha (Casa de Câmara e Cadeia),"Construída a partir de 1839 no antigo Campo da Chácara (atual Praça dos Andradas), abrigou Câmara Municipal, Fórum e cadeia até 1958. Serviu também como quartel durante a Guerra do Paraguai, alojou presos políticos e foi tombada pelo IPHAN. Após restauração, tornou‑se sede da Oficina Pagu e da Fábrica de Cultura 4.0.",-23.93557428,-46.33244205,cultura,"Praça dos Andradas, s/n - Centro, Santos - SP",https://qbdofilxcfnxhaimuilu.supabase.co/storage/v1/object/public/famous-places-images/1753198903957-77djn2.jpeg,2025-07-22 15:40:49.655281+00,2025-07-22 15:40:49.655281+00
2b74e2d6-b676-4682-8070-2d9d1f7b14ec,Morro da Asa Delta (Morro do Voturuá),"Com 180 m de altitude, o Morro da Asa Delta — também conhecido como Morro do Voturuá ou Itararé — oferece vistas panorâmicas da Baixada Santista, incluindo Santos, São Vicente, Praia Grande, Cubatão e Guarujá. Frequentado por praticantes de voo livre, o local permite voos duplos de asa‑delta e parapente, com duração de até 20 minutos dependendo das condições climáticas. É possível subir a pé, de carro ou teleférico, tornando-se uma experiência única para aventureiros e apreciadores de paisagens naturais.",-23.96476724,-46.36234582,Mirante / Esporte,"São Vicente – SP (acesso pela Rua Bento Gonçalo, próximo à Praia do Itararé)",https://qbdofilxcfnxhaimuilu.supabase.co/storage/v1/object/public/famous-places-images/1753726356199-66siu5.jpg,2025-07-28 18:01:10.531561+00,2025-07-28 18:01:10.531561+00
2c2a0db8-b240-4d7c-909a-4a98e05b438d,Museu de Pesca,"Museu dedicado à pesca e vida marinha, localizado em um antigo forte. Possui esqueleto de baleia e exposições sobre a história da pesca no litoral paulista.",-23.99005741,-46.30638835,museu,"Av. Bartolomeu de Gusmão, 192, Ponta da Praia, Santos - SP",https://qbdofilxcfnxhaimuilu.supabase.co/storage/v1/object/public/famous-places-images/1753188883235-6n4obc.jpg,2025-07-22 11:28:21.362614+00,2025-07-22 11:28:21.362614+00
2fa6bb5a-2ee5-4165-9ed0-091117db4002,Escultura 100 Anos da Imigração Japonesa,"Monumento criado pela artista Tomie Ohtake em homenagem aos 100 anos da imigração japonesa no Brasil. Localizada na Praça da Independência, a escultura representa a união entre Brasil e Japão.",-23.97215720,-46.35004960,monumento,"Praça da Independência, Santos - SP",https://qbdofilxcfnxhaimuilu.supabase.co/storage/v1/object/public/famous-places-images//escultura.webp,2025-07-20 17:40:05.126956+00,2025-07-20 17:40:05.126956+00
33dc0750-c374-441a-b005-7554e2a3e203,Memorial dos 500 Anos,"Projeto de Oscar Niemeyer inaugurado em 2000 para celebrar os 500 anos do descobrimento do Brasil. Localizado na Ilha Porchat, oferece plataforma panorâmica com vista de Santos e São Vicente, além de espaço expositivo sobre a história da região.‎",-23.96350000,-46.39000000,Monumento,"Ilha Porchat, São Vicente - SP",https://qbdofilxcfnxhaimuilu.supabase.co/storage/v1/object/public/famous-places-images/1753798164620-s6auo8.jpg,2025-07-29 13:58:49.865407+00,2025-07-29 13:58:49.865407+00
3bb666bc-09f0-4cf4-ab6b-60284e01964e,Praça do Sesc Santos,"A Praça do Sesc, cujo nome oficial é Praça Doutor Caio Ribeiro de Moraes e Silva, foi doada pelo Sesc para a prefeitura, tendo sido construída e urbanizada inteiramente pelo Sesc. Fica localizada bem em frente ao Sesc e sedia todos os domingos a FeirArte, feira popular de artesanato e gastronomia, sendo uma importante expressão da cultura do bairro santista.",-23.97642430,-46.31273980,lazer,,https://qbdofilxcfnxhaimuilu.supabase.co/storage/v1/object/public/famous-places-images/1754068952446-8dcxcl.jpg,2025-08-01 12:45:23.084972+00,2025-08-01 12:45:23.084972+00
402a6637-27aa-485b-81a5-3c811661f739,Farol Quebrado do Canal 6,"Ruínas do antigo farol de sinalização no mar, erguido no início dos anos 1960 junto ao Canal 6, que orientava navios na entrada da baía de Santos. Foi parcialmente demolido em 2009, mas resistiu graças à mobilização popular. Hoje é ponto de contemplação, com projetos futuros para instalação de coluna d’água iluminada no local.",-23.98639251,-46.31336957,histórico,"Canal 6, Ponta da Praia, Santos - SP",https://qbdofilxcfnxhaimuilu.supabase.co/storage/v1/object/public/famous-places-images/1753198930430-fr498n.jpg,2025-07-22 15:40:49.655281+00,2025-07-22 15:40:49.655281+00
4235bd8b-8fc2-4f18-9d84-ce851bdf4826,Trabulsi,"A Rua Bassin Nagib Trabulsi, situada na Ponta da Praia, é um espaço de intensa circulação e convivência. Composta por uma mistura de comércios e prédios residenciais, essa via desempenha um papel importante para a reprodução social da população dessa região, é uma rua de trabalhadores. Entre mercados, adega, lojinhas de variedades e estabelecimentos de serviços, a rua se destaca por um movimento imparável. De dia, é frequentada por quem busca as coisas do cotidiano, à noite se transforma em um ponto de encontro de diferentes grupos.Na sexta-feira os bares começam a ganhar mais vida, a rua vira um ponto de encontro de características pitorescas. Ainda há pessoas que descem dos prédios com cadeira de praia e sentam na calçada, principalmente nos dias e noites de calor e a movimentação vai até a madrugada. É criança chorando, cachorro latindo, bêbado gritando e, no domingo, tem o tradicional bingo valendo um frango na lanchonete “Wu Jian”, popularmente chamada como ""lanchonete da Chinesa"". E nos fins de ano e carnavais a “Banda da Trabulsi” toca o maior terror. Assim como muitos outros lugares do Brasil, a vida acontece marcada por contradições e desigualdades sociais, nessa rua há uma presença significativa da parcela mais pauperizada da população, que usa o espaço da rua como estratégia de sobrevivência. Crianças e jovens vendem balas na porta do mercado. A rua conserva muitos prédios de apartamentos pequenos, habitados principalmente por moradores idosos que compraram seus apartamentos bem antes de a Ponta da Praia se tornar uma área tão cara, devido à especulação imobiliária. Essa realidade, desafia os processos de gentrificação intensificados na região e o senso comum de que a Ponta da Praia é um bairro da classe alta. A Trabulsi, portanto, carrega as marcas da história da Ponta da Praia, de Santos e de seus moradores, resistindo às transformações urbanas e “financeirismos” enquanto mantém vivo seu modo próprio de ser, e infelizmente, seus problemas.",-23.98410290,-46.30796700,comunidades,,https://hericmr.github.io//cartografiasocial/fotos/trabulsi.png,2025-08-01 12:45:20.215065+00,2025-08-01 12:45:20.215065+00
4acf0451-0976-47ef-aaec-6222715737a2,Aquário Municipal,"O Aquário Municipal de Santos localiza-se no bairro da Ponta da Praia, na cidade de Santos, estado de São Paulo, Brasil. ",-23.98620512,-46.30826036,turismo,"Av. Bartolomeu de Gusmão, s/n, Ponta da Praia, Santos - SP",https://qbdofilxcfnxhaimuilu.supabase.co/storage/v1/object/public/famous-places-images/1753184131476-ssvljv.jpg,2025-07-22 11:28:21.362614+00,2025-07-22 11:28:21.362614+00
519cd223-4878-4b27-b9b0-6443232f50a7,Concha Acústica,"Projetada pelo arquiteto Carlos Prates, a Concha Acústica foi inaugurada em junho de 1981 ao lado do Canal 3, na orla, durante o 93º aniversário do bairro Gonzaga. O espaço funciona como um centro de cultura ao ar livre, onde são promovidos espetáculos artísticos e culturais, além de exposições. Com capacidade para 300 espectadores, é um local icônico para eventos na cidade de Santos.",-23.97098350,-46.32955770,lazer,,https://qbdofilxcfnxhaimuilu.supabase.co/storage/v1/object/public/famous-places-images/1754069098490-5doyva.jpg,2025-08-01 12:45:21.848508+00,2025-08-01 12:45:21.848508+00
56c40ee7-ee01-49cc-9ebc-f6f25b870380,Fortaleza da Barra Grande,"Construída em 1584 pelos espanhóis durante a União Ibérica, a fortaleza foi posteriormente ampliada pelos portugueses para proteger o estuário do Porto de Santos. Possui arquitetura militar típica do período colonial e já abrigou artilharia pesada. Durante séculos teve papel estratégico na defesa contra corsários e invasões. Restaurada e reaberta ao público em 2010, é hoje um importante ponto turístico e educativo, com vista panorâmica da baía e exposições sobre a história da região. Tombada como patrimônio histórico pelo IPHAN.",-23.99489437,-46.30689561,Fortificação,"Avenida Almirante Saldanha da Gama, s/nº, Ponta da Praia, Guarujá - SP",https://qbdofilxcfnxhaimuilu.supabase.co/storage/v1/object/public/famous-places-images/1753799946158-b4wc9w.jpg,2025-07-29 13:58:49.865407+00,2025-07-29 13:58:49.865407+00
63d00bfc-c073-420b-8a49-5519debbd4b4,Sesc - Santos,"Mantido pelos empresários do comércio de bens, serviços e turismo, o Sesc - Serviço Social do Comércio é uma entidade privada que tem como objetivo proporcionar o bem-estar e a qualidade de vida aos trabalhadores deste setor e sua família. No estado de São Paulo, o Sesc conta com uma rede de mais de 40 unidades operacionais – centros destinados à cultura, ao esporte, à saúde e à alimentação, ao desenvolvimento infanto juvenil, à terceira idade, ao turismo social e a demais áreas de atuação. Telefone: (13) 3278-9800 Insta: @sescsantos Site: https://www.sescsp.org.br/unidades/santos/",-23.97573110,-46.31172490,lazer,,https://qbdofilxcfnxhaimuilu.supabase.co/storage/v1/object/public/famous-places-images/1754068977341-o69xea.png,2025-08-01 12:45:22.922646+00,2025-08-01 12:45:22.922646+00
64abfd7f-cedf-4d90-8c9a-64fcc0184d1f,Engenho dos Erasmos,"Também conhecido como Engenho São Jorge dos Erasmos, é uma das mais antigas estruturas coloniais do Brasil, datada do início do século XVI. Foi um importante engenho de açúcar operado por mão de obra indígena e escravizada. Suas ruínas representam a história da colonização portuguesa e da economia açucareira no Brasil. Hoje é um sítio arqueológico tombado e aberto à visitação.",-23.94759978,-46.36294305,histórico,"Rua Alan Cíber Pinto, s/n, Vila São Jorge, Santos - SP",https://qbdofilxcfnxhaimuilu.supabase.co/storage/v1/object/public/famous-places-images/1753190382527-ilvgn5.jpg,2025-07-22 13:18:33.848569+00,2025-07-22 13:18:33.848569+00
6b7f52f4-db8d-4b65-9005-3902262dbbf3,Parque Cultural Vila de São Vicente,"Espaço inaugurado em 2001 que recria a Vila de 1532 com obras renascentistas, Pelourinho, Casachapadinha e encenações históricas. Construções feitas com técnicas tradicionais (telhas e madeiras artesanais). Inclui museu, comércios simbólicos e representações vivas do período colonial.‎",-23.96871800,-46.38813260,Cultural,"Praça João Pessoa, Centro, São Vicente - SP",https://qbdofilxcfnxhaimuilu.supabase.co/storage/v1/object/public/famous-places-images/1753797826410-9e7ocl.jpg,2025-07-29 13:58:49.865407+00,2025-07-29 13:58:49.865407+00
70f021f1-adc8-46e7-8c8e-397b58071ceb,Deck do Pescador,"Um ponto turístico e cartão postal da cidade, localizado na Ponta da Praia, conhecido por sua vista privilegiada da entrada e saída de navios do porto de Santos e também por ser um local procurado para a pesca. ",-23.99072545,-46.30704848,Religioso,"Rua do Comércio, Centro, Santos - SP",https://qbdofilxcfnxhaimuilu.supabase.co/storage/v1/object/public/famous-places-images/1754398460726-exggw2.webp,2025-07-29 13:58:49.865407+00,2025-07-29 13:58:49.865407+00
719a095d-ee7f-4cde-99a5-2e98bc2e9a2f,Marco Oficial do Quilombo do Jabaquara,"Segundo estudo publicado pelo Instituto Prócomum o Quilombo do Jabaquara foi o mais famoso da região, um dos maiores do Brasil e estima-se que tenha abrigado 10 mil escravizados. Fundado em 1882, por iniciativa dos abolicionistas da elite santista Américo Martins e Xavier Pinheiro teve como líder o negro alforriado Quintino de Lacerda.",-23.93926890,-46.33592250,historico,,https://hericmr.github.io/cartografiasocial/fotos/quilombo_1.jpg,2025-08-01 12:45:24.912381+00,2025-08-01 12:45:24.912381+00
72ea6754-de4c-4640-8f08-8639092540b4,Catedral de Santos,"Templo neogótico iniciado em 1909, em estilo projetado pelo engenheiro alemão Maximilian Emil Hehl; possui vitrais importados da Alemanha, afrescos imponentes e esculturas em granito na fachada. Funcionou parcialmente desde os anos 1920 e foi concluída em 1967. Atualmente é sede da Diocese de Santos.‎",-23.93682160,-46.32440840,Religioso,"Praça da Catedral, Centro, Santos - SP",https://qbdofilxcfnxhaimuilu.supabase.co/storage/v1/object/public/famous-places-images/1753798346188-2tb9cc.jpg,2025-07-29 13:58:49.865407+00,2025-07-29 13:58:49.865407+00
74256c3a-1743-4d49-8a15-807b7b24ca03,Cinema no Gonzaga - Cine arte Posto 4,"Cinema inaugurado em 1991 a fim de exibir filmes que foram constantemente ignorados nas salas comerciais. Está situado na orla da Praia do Gonzaga, no Posto 4. O local exibe filmes nacionais toda semana no valor de R$3,00 a inteira e R$1,50 a meia.",-23.97069973,-46.33025836,lazer,,https://cdn.diariodolitoral.com.br/img/pc/920/610/dn_arquivo/2023/01/cine-arte-posto-capa.jpg,2025-08-01 12:45:25.200642+00,2025-08-01 12:45:25.200642+00
74e144cb-b8f5-4f44-a286-0736afeb3005,Burakos Bar,"Bar alternativo e underground em Santos, com foco em música independente (rock, punk, hip‑hop, experimental), arte urbana e eventos criativos — incluindo feiras de arte, vinil e grafites locais. Um espaço autêntico da cena cultural da cidade.",-23.93184376,-46.33409724,Cultura Alternativa / Bar / Música,"R. Brás Cubas, 397 – Vila Nova, Santos – SP",https://qbdofilxcfnxhaimuilu.supabase.co/storage/v1/object/public/famous-places-images/1753726413135-4fphn0.webp,2025-07-28 18:04:10.345318+00,2025-07-28 18:04:10.345318+00
7eab7553-85a1-40b1-9f55-b93ae4fd79e6,Fonte do Sapo,"Inaugurada em 10 de julho de 1943, a Fonte do Sapo era chamada de Lagoa do Sapo. As esculturas da Fonte foram criadas pelos alunos de diversos cursos de Artes e Ofícios do Instituto Dona Escolástica Rosa, sob a orientação do mestre escultor Domingos Saviolli. Nos anos 50, o local sofreu sua primeira reforma, para ganhar mais beleza e vida, e ganhou figuras de sapos menores, com instrumentos musicais, ao redor de um grande sapo no centro.",-23.98033000,-46.31325810,lazer,,https://qbdofilxcfnxhaimuilu.supabase.co/storage/v1/object/public/famous-places-images/1754394080872-s3r5ee.jpg,2025-08-01 12:45:16.990674+00,2025-08-01 12:45:16.990674+00
824d7554-584a-4342-a6d5-87ecf7dd79fe,Gonzaga,"O Gonzaga é um bairro nobre e bastante frequentado pelos moradores da Baixada Santista, muito conhecido pelo comércio, shoppings, sorveterias, restaurantes, hotéis, bares e a praia. O bairro foi formado em 1889, porém ganhou o nome em 21 de Junho de 1967 em alusão ao aniversário de Luís Antônio Gonzaga, que tinha o Bar do Gonzaga em frente à praia. De acordo com o historiador José Dionísio de Almeida, da Fundação Arquivo e Memória de Santos (FAMS), “Próximo a esse bar ficava um ponto de bondes vindos do Centro. E o nome ficou como herança da existência do estabelecimento, muito utilizado por santistas. As pessoas falavam: vamos ao bar do Gonzaga?” O Parque Balneário é uma grande referência histórica do bairro pois no início do século XX era usado para festas, cassino, shows e bailes da população mais rica da cidade, até ser demolido na década de 70 para reaproveitamento da área num complexo com prédios residenciais, o primeiro Shopping da cidade e um edifício hoteleiro moderno. Logo em seguida, nos anos 80 foi construído o segundo shopping da cidade - Miramar, que também tem um hotel. Pensando na história cultural do Gonzaga, não é possível deixar de lado o Roxy, cinema de rua que segue resistindo a mais de 90 anos, viveu a mudança na maneira de se exibir filmes: dos primeiros e grandes rolos de película ao sistema digital.",-23.96420431,-46.33405917,bairro,,https://kbekziboncpvjqffmhlx.supabase.co/storage/v1/object/public/media/locations/v8n1lvdcif.jpeg,2025-08-01 12:45:25.057031+00,2025-08-01 12:45:25.057031+00
827703a0-2fcd-4aaf-8fe8-20030c512833,Centro Cultural Patrícia Galvão,"O Teatro Patrícia Galvão é um dos principais espaços culturais de Santos, conhecido por sua arquitetura e por abrigar diversas produções teatrais e eventos culturais ao longo do ano. O teatro leva o nome de Pagu, uma importante feminista, militante de esquerda e artista de Santos.",-23.94419749,-46.33284273,lazer,,https://qbdofilxcfnxhaimuilu.supabase.co/storage/v1/object/public/famous-places-images/1754069068393-epv96k.jpg,2025-08-01 12:45:20.50924+00,2025-08-01 12:45:20.50924+00
8db78b0c-fdc6-4107-bd1b-4b83f29788d4,Policlínica Aparecida,"A Policlínica Aparecida é uma unidade de saúde pública essencial para a comunidade do bairro Aparecida, em Santos. Localizada na Avenida Pedro Lessa, 1728, a unidade funciona de segunda a sexta-feira, das 7h às 17h, e pode ser contatada pelo telefone (13) 3231-6548. Localização e Estrutura Endereço: Av. Pedro Lessa, 1728 – Bairro Aparecida, Santos, SP Horário de Funcionamento: Segunda a sexta-feira, das 7h às 17h",-23.97143901,-46.30826560,assistencia,,,2025-08-01 12:45:14.195422+00,2025-08-01 12:45:14.195422+00
9469928d-7657-4f10-97ab-de63fa79c2cb,Orquidário Municipal,"O Orquidário Municipal de Santos é um parque zoobotânico situado no município brasileiro de Santos, no Estado de São Paulo.
Inaugurado em 1945, dispõe de uma floresta urbana e exuberante, cuidadosamente plantada em solo adequado e cultivada, em particular com espécies da Mata Atlântica, além de estufa com uma coleção de orquídeas. Conta com mais de 3500 orquídeas de mais de 120 espécies. Além disso, possui cerca de 500 animais de 70 espécies, a exemplo de cutias, cágados, jabutis, saracuras e pavões. ",-23.96548643,-46.34921985,turismo,"Praça Washington, s/n, José Menino, Santos - SP",https://qbdofilxcfnxhaimuilu.supabase.co/storage/v1/object/public/famous-places-images/1753188837212-yfahbf.jpeg,2025-07-22 11:28:21.362614+00,2025-07-22 11:28:21.362614+00
97fde606-805f-453d-a54f-ccb3d401c2f3,Policlínica Jabaquara - Unidade Saúde da Família Jabaquara,"Unidade Saúde da Família do Jabaquara é a primeira policlínica universitária da cidade de Santos, em conjunto com a fundação Lusíada propicia os estudantes estarem mais próximos da comunidade. A Unidade é referência de cuidado no bairro, além de oferecer consultas e acompanhamentos médicos, oferece oficinas e grupos de promoção e prevenção.",-23.94075810,-46.33569590,assistencia,,https://hericmr.github.io/cartografiasocial/fotos/poli_jaba_1.jpg,2025-08-01 12:45:15.127375+00,2025-08-01 12:45:15.127375+00
a07acdbe-fba4-47be-85b6-5c804951aadc,Casa do Trem Bélico,"Edificado entre 1734 e 1738 (com possível origem anterior entre 1640‑1656), servia como depósito de munições para os fortes que protegiam a Vila de Santos. É o mais antigo prédio público da cidade e único exemplar de arquitetura militar colonial setecentista ainda preservado no Brasil. Restaurado em 2009 pelo IPHAN e Condephaat, agora abriga exposições permanentes (Linha do Tempo e acervo bélico), espaço educativo, café e administração do Circuito dos Fortes.‎",-23.93283340,-46.32320730,Fortificação,"Rua Tiro Onze, nº 11, Centro Histórico, Santos - SP",https://qbdofilxcfnxhaimuilu.supabase.co/storage/v1/object/public/famous-places-images/1753798311432-o5cuhi.jpg,2025-07-29 13:58:49.865407+00,2025-07-29 13:58:49.865407+00
a1864bb4-6103-49b0-b3c2-b21998bcb760,Praça Zumbi dos Palmares,"Praça homenageando Zumbi dos Palmares, com busto e espaço para eventos como celebração do Dia da Consciência Negra. Conta também com playground e pista de skate integrados à memória afro-brasileira.",-23.96122077,-46.31626565,cultura,"Bairro Macuco, Santos - SP",https://qbdofilxcfnxhaimuilu.supabase.co/storage/v1/object/public/famous-places-images/1753197255871-p7moer.jpg,2025-07-22 15:12:20.284+00,2025-07-22 15:12:20.284+00
a5780e1e-232b-4b38-abb2-eb44fc965b39,Policlínica e Pronto Atendimento do Porto - UBS Pa-Porto,"A Policlínica e Pronto Atendimento do Porto, localizada no bairro Paquetá, em Santos, é uma unidade de saúde que oferece serviços médicos básicos e emergenciais à população. Situada na Rua General Câmara, 507, a unidade funciona de segunda a sexta-feira, das 7h às 19h. A policlínica disponibiliza atendimentos em diversas especialidades médicas, além de serviços como consultas, exames laboratoriais, vacinação e acompanhamento de doenças crônicas. O pronto atendimento serve como suporte para casos de urgência e emergência de baixa complexidade, garantindo um serviço acessível à comunidade local. Para mais informações, é possível entrar em contato.",-23.93520260,-46.31619479,assistencia,,https://hericmr.github.io/cartografiasocial/fotos/ubspaqueta.jpg,2025-08-01 12:45:14.975298+00,2025-08-01 12:45:14.975298+00
a8f6d4ca-f37d-4983-aae9-724adb3044be,Ponte dos Práticos,"A **Ponte dos Práticos**, chamada oficialmente **Ponte Edgard Perdigão**, é um atracadouro inaugurado em 11 de junho de 1968. Com uma vista bonita da baía de Santos, Guarujá e Ilha Porchat, recebe diariamente milhares de pessoas, sobretudo aquelas que fazem a travessia para a praia do **Góes** e **Santa Cruz dos Navegantes** que é conhecida também popularmente como Pouca Farinha. Há também ponto de embarque para escunas turísticas e barcos pesqueiros, além de uma lanchonete particular . A Ponte dos Práticos se mantém como um ponto **histórico**, **turístico** e **funcional** para a cidade de Santos.",-23.99165560,-46.30290440,historico,,https://hericmr.github.io/cartografiasocial/fotos/ponte.png,2025-08-01 12:45:24.614389+00,2025-08-01 12:45:24.614389+00
a97cb271-62b5-4b4e-a231-826e5f771f05,Terra Indígena Paranapuã,"A Terra Indígena Paranapuã, localizada em São Vicente, é uma das dezenas de comunidades do povo Guarani Mbya no estado de São Paulo e uma das centenas no cone sul do continente americano. O nome ""Paranapuã"" significa ""lugar do mar redondo"" ou ""enseada"", refletindo a conexão da aldeia com o ambiente natural e seus múltiplos seres, especialmente o oceano. Essa aldeia, assim como qualquer território indígena, constitui o espaço fundamental onde se realizam as práticas, os conhecimentos e os rituais de cada povo originário. Como local de resistência e de conscientização sobre a presença e os direitos dos povos indígenas na região, a Aldeia Paranapuã promove atividades educativas e culturais, abrindo suas portas para visitantes interessados em aprender mais sobre a história e o modo de vida dos indígenas. No entanto, a aldeia enfrenta sérias dificuldades devido à falta de reconhecimento territorial pelo Estado brasileiro. Situada dentro do Parque Estadual Xixová-Japuí, a aldeia não possui direitos específicos sobre o uso da terra, o que limita atividades tradicionais, como a agricultura de subsistência e a prática de seus costumes. A regulamentação ambiental do parque proíbe até mesmo a criação de hortas, essenciais para a sobrevivência da comunidade. As pessoas da aldeia participam de manifestações políticas defendendo o direito ao território e ao seu modo de viver, contando com aliados de outras aldeias e povos.",-23.98334790,-46.38269720,comunidades,,https://hericmr.github.io//cartografiasocial/fotos/paranapua.jpg,2025-08-01 12:45:20.364126+00,2025-08-01 12:45:20.364126+00
abe509b1-a366-4102-a573-c47e7d919810,Bolsa Oficial de Café,"Edifício histórico construído em 1922, sede da antiga Bolsa Oficial de Café. Arquitetura eclética com influências neoclássicas e art déco.",-23.93252415,-46.33015802,histórico,"Rua XV de Novembro, 95, Centro, Santos - SP",https://qbdofilxcfnxhaimuilu.supabase.co/storage/v1/object/public/famous-places-images/1753184266557-vwjub6.jpeg,2025-07-22 11:28:21.362614+00,2025-07-22 11:28:21.362614+00
b20cfc27-d0ea-4cb4-a365-e4161492dfdf,Ilha Urubuqueçaba,"Pequena ilha rochosa localizada próxima à praia do José Menino, em Santos, a cerca de 270 metros da areia. A Ilha Urubuqueçaba é envolta em lendas indígenas e histórias locais, sendo um dos símbolos mais misteriosos da cidade. Seu nome, de origem tupi, significa ""lugar onde se ajunta urubu"". Nos períodos de maré baixa, é possível alcançá-la a pé por um banco de areia, tornando-se uma experiência única para visitantes. A ilha abriga vegetação nativa e formações rochosas, além de ser ponto de observação da fauna marinha e aves. É considerada uma Área de Proteção Ambiental e possui acesso restrito para garantir a preservação do ecossistema.",-23.97402133,-46.35270774,Ilha,"Em frente à Praia do José Menino, Santos - SP",https://qbdofilxcfnxhaimuilu.supabase.co/storage/v1/object/public/famous-places-images/1753725981319-l5ethh.jpeg,2025-07-28 17:56:24.058963+00,2025-07-28 17:56:24.058963+00
b7bea948-49a3-490f-b747-9026d447085a,Pinacoteca Benedicto Calixto,"A Pinacoteca Benedicto Calixto é um importante centro cultural em Santos, localizado no bairro Boqueirão. O espaço abriga exposições de arte, eventos culturais e atividades educativas, sendo um ponto de referência para os amantes da arte.",-23.97326090,-46.32220720,lazer,,https://qbdofilxcfnxhaimuilu.supabase.co/storage/v1/object/public/famous-places-images/1754398264025-2iolgh.jpg,2025-08-01 12:45:23.385709+00,2025-08-01 12:45:23.385709+00
bdff5f19-447a-464e-a94a-9ca8893dfe75,Teatro Coliseu,"Teatro histórico inaugurado em 1924, um dos mais importantes da cidade. Arquitetura neoclássica com capacidade para 1.200 espectadores.",-23.93641467,-46.32442653,cultura,"Rua Amador Bueno, 237, Centro, Santos - SP",https://qbdofilxcfnxhaimuilu.supabase.co/storage/v1/object/public/famous-places-images/1753188925466-vm2kfk.jpg,2025-07-22 11:28:21.362614+00,2025-07-22 11:28:21.362614+00
bef004ba-b704-4213-9d9e-632d6cea9402,Quilombo do Jabaquara,"Constituído em 1880 por libertos, fugitivos da escravidão e militantes abolicionistas, o Quilombo do Jabaquara chegou a abrigar até 20 mil pessoas. Foi um importante reduto da resistência negra em Santos. Em 2005, uma placa foi instalada na entrada simbólica do quilombo para homenagear sua história.",-23.94263900,-46.34686100,histórico,"Rua Prof. Celso da Cunha Alves, 94, Jabaquara, Santos - SP",https://qbdofilxcfnxhaimuilu.supabase.co/storage/v1/object/public/famous-places-images/1753190426877-qj6oh6.jpg,2025-07-22 13:18:33.848569+00,2025-07-22 13:18:33.848569+00
c4ef54b1-5a77-4606-b17a-318f2142c55b,Ilha Diana,"Ilha localizada no estuário do rio Diana, na Área Continental de Santos. Um reduto caiçara ainda ativo, com cerca de 56 famílias vivendo da pesca artesanal, construções sobre palafitas e forte tradição comunitária. O acesso é feito apenas por barco, incluindo visitas guiadas que percorrem mangues e canais, com almoço típico e interação com a cultura local. A travessia dura cerca de 15–20 minutos a partir do centro de Santos.",-23.91554014,-46.30828232,Cultura / Natureza / Comunitário,"Estuário do rio Diana (Área Continental), Santos – SP (acesso por barco)",https://qbdofilxcfnxhaimuilu.supabase.co/storage/v1/object/public/famous-places-images/1753726461235-c12dvc.JPG,2025-07-28 18:04:10.345318+00,2025-07-28 18:04:10.345318+00
c4fe56ca-f5c1-464a-b2a0-370e25a5f4cc,Estádio Urbano Caldeira - Vila Belmiro,"Este espaço muito conhecido teve sua inauguração em 12 de outubro de 1916, ainda quando a Vila Belmiro que conhecemos hoje se chamava Vila Operária. Sobre esses nomes, o próprio estádio em sua formação era chamado de outra forma: **Campo do Santos** (ou também **Praça de Esportes do Santos**). Somente em 1933, após o falecimento de Urbano Caldeira, o campo passou a se chamar oficialmente **Estádio Urbano Caldeira**. Mas o time, como já se sabe, é anterior a esse período, então a questão é: **Como faziam para treinar?** Os treinamentos aconteciam em um antigo campo de treinamento (que hoje é o **Centro de Treinamento Rei Pelé**), localizado no bairro Macuco, perto da Santa Casa de Saúde. Esse campo ainda existe, mas, na época, não oferecia acomodações necessárias para o time.",-23.95112760,-46.33922250,lazer,,https://hericmr.github.io//cartografiasocial/fotos/vila.jpeg,2025-08-01 12:45:19.284868+00,2025-08-01 12:45:19.284868+00
c543511b-0c5e-4ecf-8282-ddd157f3a759,Praça da Biquinha de Anchieta,"Fonte construída em 1533 e principal ponto de abastecimento de água da vila colonial, ligada às catequeses de Anchieta aos indígenas. Atualmente abriga feiras de doces, eventos culturais e celebrações históricas, sendo importante memória comunitária.‎",-23.97100728,-46.38625950,Histórico / Fonte,"Praça 22 de Janeiro, São Vicente - SP",https://qbdofilxcfnxhaimuilu.supabase.co/storage/v1/object/public/famous-places-images/1753800595746-46xcft.jpg,2025-07-29 13:58:49.865407+00,2025-07-29 13:58:49.865407+00
c57cda23-8fb8-4b96-9409-9de7cb07ba22,Praça Palmares,"Entre o Canal 4 e a Avenida Afonso Pena existe uma extensa área de 10 mil m², onde localiza-se a Praça Palmares, a única do município situada em quatro bairros. Os habitantes do quadrante de números 1 ao 11 moram no Estuário. Seus vizinhos, do 12 ao 16, no Boqueirão. Os imóveis do 18 ao 26 ficam no Embaré, e do 27 ao 30, no Macuco. A Praça Palmares recebeu este nome em homenagem à Zumbi dos Palmares. No local acontece a tradicional cerimônia que recorda a morte do herói de Palmares e marca o Dia da Consciência Negra. Busto de Zumbi dos Palmares Há muitas histórias em torno da figura de Zumbi dos Palmares. A palavra “nzumbi” vem do termo quimbundo e tem vários significados, entre as quais, “alma”, “fantasma”, “duende"", “deus”. Remetendo a um plano mais espiritual e coletivo. Zumbi nasceu em 1655, já no Quilombo dos Palmares. Foi capturado ainda criança e entregue como escravo a religiosos, que se sucederam na criação do garoto, até chegar ao padre Antônio Melo. O garoto foi batizado com nome cristão – Francisco – e, ainda criança, aprendeu a falar e a escrever na língua portuguesa e em latim. Mas essa identidade mudaria tão logo. Franscisco fugiu e retornou ao quilombo onde nascera, passando a ter contato direto com a realidade do escravismo – o que o deixa indignado e o leva à luta em defesa de seus iguais. De volta ao então Mocambo Palmares, Zumbi se aperfeiçoou na luta da capoeira e no uso de arcos, flechas, lanças e artimanhas com fogo, táticas que o habilitaram a comandar o efetivo militar dos palmarinos. Após a morte de seu tio, Ganga Zumba, Zumbi assumiu a liderança de Palmares, que reunia cerca de 16 quilombos, nas regiões localizadas entre o norte de Alagoas e o sul de Pernambuco. Um ano após a destruição de Palmares, em 1694, Zumbi é morto por decapitação, no dia 20 de novembro, na Serra da Barriga. Se o umzimba (corpo físico) de Zumbi dos Palmares se foi, seu isithunzi (legado, força, espírito ancestral) permanece no mundo, orientando e conduzindo os atos dos seus. Pista de Skate Inaugurada na gestão da Prefeita Telma de Souza (1989-1992), o espaço é o maior voltado para a prática do Skate no município de Santos. A Praça conta com rampas e uma pista para manobras. A Praça costuma ter movimentação intensa de skatistas e jovens que passam parte do dia no espaço. Para além das celebrações do dia da Consciência Negra, há pouco uso e apropriação da Praça Palmares por parte dos coletivos e movimentos sociais. O espaço que carrega forte simbologia em seu nome poderia cumprir um papel de memória das lutas, de forma a integrar os bairros e a população de seu entorno.",-23.96139682,-46.31582655,lazer,,https://kbekziboncpvjqffmhlx.supabase.co/storage/v1/object/public/media/locations/0pgxs47c2ls.png,2025-08-01 12:45:25.349741+00,2025-08-01 12:45:25.349741+00
c706e2f6-dd3d-4856-bda4-67d11dde2e8c,Basílica de Santo Antônio do Embaré,"A Basílica Menor de Santo Antônio do Embaré ou Basílica de Santo Antônio do Embaré, inaugurada em 1945, localiza-se na cidade de Santos, estado de São Paulo e foi projetada e construída no estilo da arquitetura neogótica. ",-23.97415291,-46.31999232,igreja,"Av. Bartolomeu de Gusmão, 32, Embaré, Santos - SP",https://qbdofilxcfnxhaimuilu.supabase.co/storage/v1/object/public/famous-places-images/1753184200602-co9u02.jpg,2025-07-22 11:28:21.362614+00,2025-07-22 11:28:21.362614+00
c74957b3-cfd5-4842-9281-016ab44befa9,Estátua de Iemanjá - Rainha do Mar,"A estátua de Iemanjá, localizada na Praia do José Menino, é um dos símbolos da força e presença afro-brasileira em Santos. Sua instalação na orla da praia foi uma conquista dos movimentos negros da região, após permanecer guardada no Teatro Municipal de Santos por vários anos.",-23.98511110,-46.30886110,historico,,/cartografiasocial/fotos/yemanja.png,2025-08-01 12:45:24.463635+00,2025-08-01 12:45:24.463635+00
d1ba77ac-eee1-4efb-870a-8e60bdad676b,Casa da Frontaria Azulejada,"Edifício histórico tombado, construído em meados do século XIX, famoso pela fachada revestida de azulejos portugueses. Funcionava como entreposto comercial, e hoje abriga eventos culturais e exposições promovidas pela Fundação Arquivo e Memória de Santos, mantendo viva a memória arquitetônica da cidade.",-23.93196980,-46.33222500,História / Arquitetura / Cultura,"Rua do Comércio, 92 – Centro Histórico, Santos – SP",https://qbdofilxcfnxhaimuilu.supabase.co/storage/v1/object/public/famous-places-images/1753726218748-p4nc1e.jpg,2025-07-28 18:04:10.345318+00,2025-07-28 18:04:10.345318+00
d793180a-f048-41df-8afc-d7ae762415c6,Monumento Mães de Maio,"Monumento memorial em homenagem às Mães de Maio — familiares das vítimas dos Crimes de Maio de 2006. Escultura apresenta silhuetas humanas estilizadas, buquês de rosas e rampa de acesso, simbolizando paz e a luta por justiça.",-23.94265363,-46.37178630,memorial,"Av. Jovino de Melo, em frente ao nº 380, Zona Noroeste, Santos - SP",https://qbdofilxcfnxhaimuilu.supabase.co/storage/v1/object/public/famous-places-images/1753197484632-kzzx05.jpg,2025-07-22 15:12:20.284+00,2025-07-22 15:12:20.284+00
d98313bb-2727-43df-8471-d5f9766b1353,Teatro Municipal de Santos,"Inaugurado em 1979, projetado por Oswaldo Corrêa Gonçalves, Júlio Katinsky e Abrahão Sanovicz, o Teatro Municipal ocupa cerca de 5.130 m² e integra o Centro de Cultura Patrícia Galvão. Com cerca de 765 lugares, foi concebido para democratizar o acesso às artes cênicas, sem divisão social por níveis de assento. Recebe espetáculos variados e tem relevante atuação cultural na cidade desde os anos 1980.",-23.94469527,-46.33288836,Cultura / Teatro,"Av. Senador Pinheiro Machado, 48, Vila Mathias, Santos – SP",https://qbdofilxcfnxhaimuilu.supabase.co/storage/v1/object/public/famous-places-images/1753726675138-9y7686.jpg,2025-07-28 18:01:10.531561+00,2025-07-28 18:01:10.531561+00
e1761ce5-7559-4fc2-adda-96dcbd46d87c,Estátua de Iemanjá - Rainha do Mar,"
A estátua de Iemanjá, localizada na Praia do José Menino, é um dos símbolos da força e presença afro-brasileira em Santos. Sua instalação na orla da praia foi uma conquista dos movimentos negros da região, após permanecer guardada no Teatro Municipal de Santos por vários anos.",-23.98519705,-46.30880803,Monumento,Orla da Praia,https://hericmr.github.io/cartografiasocial/fotos/yemanja.png,2025-08-05 11:39:16.432686+00,2025-08-05 11:39:16.432686+00
eb13252f-3e8b-42f0-bb18-8c4be4f77581,O Portuário,"O Monumento ao Trabalhador Portuário, conhecido como 'O Portuário', é uma imponente escultura de 12 metros em homenagem aos trabalhadores do Porto de Santos. Criada por Vito D'Alessio e Juvenal Irene e inaugurada em 1996, a obra retrata um estivador carregando um saco, simbolizando a força e a história do trabalho no porto. Localizado na Praça Silvério de Souza, é um marco histórico e um símbolo da identidade da cidade.",-23.95045290,-46.31796710,,,https://aquiemsantostem.wordpress.com/wp-content/uploads/2013/12/wpid-picsart_1386343806092.jpg,2025-07-26 15:47:08.129676+00,2025-07-26 15:47:08.129676+00
f10ab7a3-d1db-479a-8fc0-5441f5ec1233,CRAS Zona da Orla e Intermediária,"O Centro de Referência de Assistência Social (CRAS) é uma unidade pública que atua como porta de entrada da Assistência Social, oferecendo serviços de proteção básica às famílias e indivíduos em situação de risco social. Na região da Ponta da Praia, em Santos, o CRAS responsável é o da Zona da Orla e Intermediária. Serviços oferecidos incluem: - **Proteção e Atendimento Integral às Famílias (PAIF):** Serviço que visa apoiar as famílias no fortalecimento de seus vínculos e na superação de dificuldades, por meio de atendimentos psicossociais, visitas domiciliares e atividades comunitárias. - **Gerenciamento de Programas de Transferência de Renda:** Atuação em programas como Bolsa Família, Renda Cidadã, Nossa Família, Bolsa Santos, Benefício de Prestação Continuada (BPC) para idosos e pessoas com deficiência, Ação Jovem e Valorização do Jovem. - **Serviço de Convivência e Fortalecimento de Vínculos:** Promoção de oficinas, palestras e grupos de convivência que buscam desenvolver habilidades, promover a integração social e prevenir situações de vulnerabilidade. **Localização e Contato:** - **Endereço:** Praça Visconde de Ouro Preto, 12, Estuário, Santos, SP. - **Telefone:** (13) 3203-2903.",-23.97202420,-46.30137360,assistencia,,https://kbekziboncpvjqffmhlx.supabase.co/storage/v1/object/public/media/locations/7562xaa5gnp.png,2025-08-01 12:45:13.329445+00,2025-08-01 12:45:13.329445+00
f3baec54-922c-4363-9480-b2688432a78b,Policlínica Campo Grande,"Unidade de saúde pública em Santos, SP, oferecendo atendimento médico e serviços de saúde à comunidade.",-23.95506250,-46.34372020,assistencia,,https://kbekziboncpvjqffmhlx.supabase.co/storage/v1/object/public/media/locations/a4t5zamrw6r.png,2025-08-01 12:45:13.553571+00,2025-08-01 12:45:13.553571+00
ffc1c326-b2dc-419e-a315-455ab174d141,Vila Belmiro (Estádio Urbano Caldeira),"Inaugurado em 12 de outubro de 1916 (primeira partida oficial em 22/10/1916 entre Santos e Ypiranga – vitória por 2×1), a “Praça de Esportes do Santos” tornou‑se o Estádio Urbano Caldeira em 24 de março de 1933, em homenagem ao dirigente e ex‑jogador Urbano Caldeira. É um dos estádios mais antigos do Brasil, palco da “Era Pelé” e conhecido como “Alçapão da Vila”. Capacidade atual de cerca de 16 000 a 20 000 torcedores e viveu momentos marcantes do futebol nacional. Abriga o Memorial das Conquistas, Centro de Memória e eventos esportivos e culturais.‎",-23.95129538,-46.33895338,Esportivo / Cultural,"Rua Princesa Isabel, Vila Belmiro, Santos - SP",https://qbdofilxcfnxhaimuilu.supabase.co/storage/v1/object/public/famous-places-images/1753798110219-gl5s23.jpeg,2025-07-29 13:58:49.865407+00,2025-07-29 13:58:49.865407+00